NORAD_CAT_ID,OBJECT_NAME,OBJECT_TYPE,EPOCH,MEAN_MOTION,ECCENTRICITY,INCLINATION,RA_OF_ASC_NODE,ARG_OF_PERICENTER,MEAN_ANOMALY,BSTAR,MEAN_MOTION_DOT,MEAN_MOTION_DDOT,TLE_LINE0,TLE_LINE1,TLE_LINE2,SEMIMAJOR_AXIS,PERIOD,APOGEE,PERIGEE,DECAYED
53408.0,STARLINK-4491,PAYLOAD,2023-08-20 12:24:09,15.08839408,0.0001199,53.2168,338.8165,83.683,276.4299,0.00014603,2.037e-05,0.0,0 STARLINK-4491,1 53408U 22097W   23232.51678045  .00002037  00000-0  14603-3 0  9997,2 53408  53.2168 338.8165 0001199  83.6830 276.4299 15.08839408 57433,6917.882,95.438,540.577,538.918,0.0
53408.0,STARLINK-4491,PAYLOAD,2023-08-22 12:05:43,15.08841187,0.0001253,53.2168,329.8947,90.3749,269.7387,7.1169e-05,8.45e-06,0.0,0 STARLINK-4491,1 53408U 22097W   23234.50397926  .00000845  00000-0  71169-4 0  9990,2 53408  53.2168 329.8947 0001253  90.3749 269.7387 15.08841187 57739,6917.877,95.437,540.609,538.875,0.0
53408.0,STARLINK-4491,PAYLOAD,2023-08-23 11:56:31,15.08839787,0.0001246,53.2188,325.4393,102.2006,257.9126,-8.55e-06,-4.24e-06,0.0,0 STARLINK-4491,1 53408U 22097W   23235.49758777 -.00000424  00000-0 -85500-5 0  9994,2 53408  53.2188 325.4393 0001246 102.2006 257.9126 15.08839787 57888,6917.881,95.438,540.608,538.884,0.0
53408.0,STARLINK-4491,PAYLOAD,2023-08-24 13:22:41,15.08841959,0.0001274,53.2173,320.6789,87.5755,272.5383,0.00013946,1.932e-05,0.0,0 STARLINK-4491,1 53408U 22097W   23236.55742185  .00001932  00000-0  13946-3 0  9994,2 53408  53.2173 320.6789 0001274  87.5755 272.5383 15.08841959 58530,6917.874,95.437,540.621,538.858,0.0
53408.0,STARLINK-4491,PAYLOAD,2023-08-25 10:02:42,15.08842228,0.0001397,53.2177,316.8118,84.1263,275.9888,7.9171e-05,9.72e-06,0.0,0 STARLINK-4491,1 53408U 22097W   23237.41854370  .00000972  00000-0  79171-4 0  9996,2 53408  53.2177 316.8118 0001397  84.1263 275.9888 15.08842228 58177,6917.874,95.437,540.705,538.772,0.0
53408.0,STARLINK-4491,PAYLOAD,2023-08-25 11:38:05,15.08843472,0.0001561,53.2182,316.515,74.4506,285.6658,9.001e-05,1.145e-05,0.0,0 STARLINK-4491,1 53408U 22097W   23237.48478350  .00001145  00000-0  90010-4 0  9991,2 53408  53.2182 316.5150 0001561  74.4506 285.6658 15.08843472 58671,6917.87,95.437,540.815,538.655,0.0
53408.0,STARLINK-4491,PAYLOAD,2023-08-26 09:53:29,15.08832678,0.0001287,53.2167,312.3503,105.7228,254.3906,0.00014081,1.953e-05,0.0,0 STARLINK-4491,1 53408U 22097W   23238.41214609  .00001953  00000-0  14081-3 0  9990,2 53408  53.2167 312.3503 0001287 105.7228 254.3906 15.08832678 58321,6917.903,95.438,540.658,538.877,0.0
53408.0,STARLINK-4491,PAYLOAD,2023-08-26 13:04:15,15.08829103,0.000137,53.2171,311.754,102.1609,257.9536,0.00021994,3.213e-05,0.0,0 STARLINK-4491,1 53408U 22097W   23238.54462633  .00003213  00000-0  21994-3 0  9998,2 53408  53.2171 311.7540 0001370 102.1609 257.9536 15.08829103 58830,6917.914,95.438,540.726,538.831,0.0
53408.0,STARLINK-4491,PAYLOAD,2023-08-26 14:39:38,15.08841242,0.0001343,53.217,311.4566,99.142,260.9724,4.6669e-05,4.55e-06,0.0,0 STARLINK-4491,1 53408U 22097W   23238.61086351  .00000455  00000-0  46669-4 0  9997,2 53408  53.2170 311.4566 0001343  99.1420 260.9724 15.08841242 58842,6917.877,95.437,540.671,538.813,0.0
53408.0,STARLINK-4491,PAYLOAD,2023-08-27 09:44:16,15.08845039,0.0001322,53.2167,307.8888,99.9829,260.1312,8.9969e-06,-1.45e-06,0.0,0 STARLINK-4491,1 53408U 22097W   23239.40574313 -.00000145  00000-0  89969-5 0  9993,2 53408  53.2167 307.8888 0001322  99.9829 260.1312 15.08845039 58968,6917.865,95.437,540.645,538.815,0.0
53408.0,STARLINK-4491,PAYLOAD,2023-08-27 11:19:39,15.08846557,0.0001329,53.2168,307.5914,101.2745,258.8397,2.1473e-05,5.4e-07,0.0,0 STARLINK-4491,1 53408U 22097W   23239.47198147  .00000054  00000-0  21473-4 0  9990,2 53408  53.2168 307.5914 0001329 101.2745 258.8397 15.08846557 58487,6917.86,95.437,540.645,538.806,0.0
53408.0,STARLINK-4491,PAYLOAD,2023-08-28 03:13:30,15.08839507,0.0001352,53.2164,304.6184,100.9193,259.1951,7.945e-05,9.77e-06,0.0,0 STARLINK-4491,1 53408U 22097W   23240.13438405  .00000977  00000-0  79450-4 0  9991,2 53408  53.2164 304.6184 0001352 100.9193 259.1951 15.08839507 58587,6917.882,95.438,540.682,538.812,0.0
53408.0,STARLINK-4491,PAYLOAD,2023-08-28 11:10:26,15.08843344,0.0001307,53.2162,303.1325,88.4464,271.6678,0.00010339,1.358e-05,0.0,0 STARLINK-4491,1 53408U 22097W   23240.46558159  .00001358  00000-0  10339-3 0  9990,2 53408  53.2162 303.1325 0001307  88.4464 271.6678 15.08843344 59127,6917.87,95.437,540.639,538.831,0.0
53408.0,STARLINK-4491,PAYLOAD,2023-08-29 09:25:50,15.08836382,0.0001337,53.2166,298.9706,90.4041,269.7105,1.4141e-05,-6.3e-07,0.0,0 STARLINK-4491,1 53408U 22097W   23241.39294931 -.00000063  00000-0  14141-4 0  9997,2 53408  53.2166 298.9706 0001337  90.4041 269.7105 15.08836382 58779,6917.891,95.438,540.681,538.832,0.0
53408.0,STARLINK-4491,PAYLOAD,2023-08-29 11:01:13,15.0883814,0.0001329,53.2165,298.6732,90.436,269.6784,2.7184e-05,1.45e-06,0.0,0 STARLINK-4491,1 53408U 22097W   23241.45918785  .00000145  00000-0  27184-4 0  9995,2 53408  53.2165 298.6732 0001329  90.4360 269.6784 15.08838140 59271,6917.886,95.438,540.67,538.832,0.0
53408.0,STARLINK-4491,PAYLOAD,2023-08-30 10:52:01,15.08835505,0.0001284,53.2162,294.2122,90.3787,269.7352,-1.9483e-05,-5.98e-06,0.0,0 STARLINK-4491,1 53408U 22097W   23242.45279297 -.00000598  00000-0 -19483-4 0  9991,2 53408  53.2162 294.2122 0001284  90.3787 269.7352 15.08835505 58931,6917.894,95.438,540.647,538.871,0.0
53408.0,STARLINK-4491,PAYLOAD,2023-08-30 20:24:19,15.08838371,0.00012,53.2169,292.4304,98.2584,261.8544,4.1093e-05,3.66e-06,0.0,0 STARLINK-4491,1 53408U 22097W   23242.85022960  .00000366  00000-0  41093-4 0  9991,2 53408  53.2169 292.4304 0001200  98.2584 261.8544 15.08838371 59481,6917.885,95.438,540.581,538.92,0.0
53408.0,STARLINK-4491,PAYLOAD,2023-08-31 05:56:38,15.08837567,0.0001286,53.216,290.6434,90.3533,269.7607,5.4415e-05,5.78e-06,0.0,0 STARLINK-4491,1 53408U 22097W   23243.24767173  .00000578  00000-0  54415-4 0  9994,2 53408  53.2160 290.6434 0001286  90.3533 269.7607 15.08837567 59547,6917.888,95.438,540.642,538.863,0.0
53408.0,STARLINK-4491,PAYLOAD,2023-09-01 12:08:57,15.08854902,0.0001054,53.217,284.9968,83.2761,276.8351,6.4831e-05,7.45e-06,0.0,0 STARLINK-4491,1 53408U 22097W   23244.50622107  .00000745  00000-0  64831-4 0  9990,2 53408  53.2170 284.9968 0001054  83.2761 276.8351 15.08854902 59247,6917.835,95.437,540.429,538.971,0.0
53408.0,STARLINK-4491,PAYLOAD,2023-09-01 20:05:53,15.088408,0.0001295,53.2158,283.5062,82.4205,277.6934,6.5687e-05,7.58e-06,0.0,0 STARLINK-4491,1 53408U 22097W   23244.83743035  .00000758  00000-0  65687-4 0  9994,2 53408  53.2158 283.5062 0001295  82.4205 277.6934 15.08840800 59297,6917.878,95.438,540.639,538.847,0.0
53408.0,STARLINK-4491,PAYLOAD,2023-09-02 08:48:59,15.08824528,0.0001125,53.2157,281.1273,87.8568,272.2553,0.00029779,4.453e-05,0.0,0 STARLINK-4491,1 53408U 22097W   23245.36735533  .00004453  00000-0  29779-3 0  9994,2 53408  53.2157 281.1273 0001125  87.8568 272.2553 15.08824528 59373,6917.928,95.439,540.571,539.014,0.0
53408.0,STARLINK-4491,PAYLOAD,2023-09-02 11:59:45,15.08844587,0.0001356,53.2159,280.5308,84.5697,275.545,5.7262e-05,6.24e-06,0.0,0 STARLINK-4491,1 53408U 22097W   23245.49982742  .00000624  00000-0  57262-4 0  9999,2 53408  53.2159 280.5308 0001356  84.5697 275.5450 15.08844587 59885,6917.866,95.437,540.669,538.793,0.0
53408.0,STARLINK-4491,PAYLOAD,2023-09-02 19:56:40,15.08844161,0.0001412,53.2151,279.0442,85.0215,275.0939,4.9518e-05,5e-06,0.0,0 STARLINK-4491,1 53408U 22097W   23245.83102705  .00000500  00000-0  49518-4 0  9998,2 53408  53.2151 279.0442 0001412  85.0215 275.0939 15.08844161 59935,6917.868,95.437,540.709,538.756,0.0
53408.0,STARLINK-4491,PAYLOAD,2023-09-03 11:50:32,15.08842274,0.0001444,53.2151,276.0698,91.5622,268.5535,4.2603e-05,3.9e-06,0.0,0 STARLINK-4491,1 53408U 22097W   23246.49342731  .00000390  00000-0  42603-4 0  9991,2 53408  53.2151 276.0698 0001444  91.5622 268.5535 15.08842274 60039,6917.873,95.437,540.737,538.739,0.0
53408.0,STARLINK-4491,PAYLOAD,2023-09-04 02:09:01,15.0883323,0.0001432,53.2149,273.3924,95.5396,264.576,-4.1889e-05,-9.54e-06,0.0,0 STARLINK-4491,1 53408U 22097W   23247.08959620 -.00000954  00000-0 -41889-4 0  9991,2 53408  53.2149 273.3924 0001432  95.5396 264.5760 15.08833230 59639,6917.901,95.438,540.757,538.775,0.0
53408.0,STARLINK-4491,PAYLOAD,2023-09-04 11:41:20,15.08830361,0.0001461,53.2149,271.6089,93.987,266.1289,-5.7082e-05,-1.196e-05,0.0,0 STARLINK-4491,1 53408U 22097W   23247.48704028 -.00001196  00000-0 -57082-4 0  9996,2 53408  53.2149 271.6089 0001461  93.9870 266.1289 15.08830361 60181,6917.91,95.438,540.786,538.764,0.0
53408.0,STARLINK-4491,PAYLOAD,2023-09-05 01:59:48,15.08836614,0.0001359,53.2152,268.9338,91.4713,268.6435,3.2001e-05,2.21e-06,0.0,0 STARLINK-4491,1 53408U 22097W   23248.08319513  .00000221  00000-0  32001-4 0  9994,2 53408  53.2152 268.9338 0001359  91.4713 268.6435 15.08836614 59787,6917.891,95.438,540.696,538.816,0.0
53408.0,STARLINK-4491,PAYLOAD,2023-09-06 11:22:53,15.08837291,0.0001359,53.2151,262.6901,94.9923,265.1224,0.00011247,1.502e-05,0.0,0 STARLINK-4491,1 53408U 22097W   23249.47423593  .00001502  00000-0  11247-3 0  9993,2 53408  53.2151 262.6901 0001359  94.9923 265.1224 15.08837291 60483,6917.889,95.438,540.694,538.814,0.0
53408.0,STARLINK-4491,PAYLOAD,2023-09-06 17:44:26,15.08833345,0.0001367,53.2151,261.5009,93.0886,267.0262,4.8193e-05,4.79e-06,0.0,0 STARLINK-4491,1 53408U 22097W   23249.73920119  .00000479  00000-0  48193-4 0  9991,2 53408  53.2151 261.5009 0001367  93.0886 267.0262 15.08833345 60037,6917.901,95.438,540.711,538.82,0.0
53408.0,STARLINK-4491,PAYLOAD,2023-09-07 08:02:55,15.08835817,0.0001376,53.2153,258.8245,94.4273,265.6876,-4.8642e-06,-3.65e-06,0.0,0 STARLINK-4491,1 53408U 22097W   23250.33536314 -.00000365  00000-0 -48642-5 0  9995,2 53408  53.2153 258.8245 0001376  94.4273 265.6876 15.08835817 60610,6917.893,95.438,540.71,538.806,0.0
